1 27424U 02022A   11289.70033676  .00000924  00000-0  21504-3 0   955
2 27424 098.2070 228.5816 0001302 087.4142 272.7190 14.57116276502769